{"type":"FeatureCollection","features":[{"type":"Feature","properties":{"fill":"rgba(251, 67, 67, 1)"},"geometry":{"type":"Polygon","coordinates":[[[29.115782,41.234367],[29.114583,41.231576],[29.112311,41.22766],[29.110322,41.225612],[29.108382,41.224252],[29.109851,41.223323],[29.109336,41.223032],[29.10748,41.222233],[29.106655,41.220946],[29.106502,41.219308],[29.106826,41.216797],[29.109127,41.215172],[29.111511,41.213981],[29.110001,41.21332],[29.109842,41.211642],[29.108526,41.209813],[29.105132,41.207315],[29.103015,41.205116],[29.101145,41.205722],[29.098451,41.2056],[29.098006,41.203349],[29.096387,41.202044],[29.094128,41.201743],[29.09248,41.200674],[29.090264,41.198259],[29.084959,41.192512],[29.082233,41.189276],[29.078988,41.187018],[29.07727,41.185399],[29.075654,41.183158],[29.074494,41.181098],[29.073403,41.178491],[29.073394,41.175917],[29.070666,41.174227],[29.067825,41.172433],[29.064528,41.171891],[29.060832,41.170932],[29.058847,41.169409],[29.05726,41.166382],[29.054769,41.165389],[29.049825,41.164075],[29.047254,41.161255],[29.043296,41.159964],[29.039856,41.159],[29.036974,41.157341],[29.035887,41.155331],[29.037414,41.153437],[29.041155,41.152832],[29.044189,41.149921],[29.047722,41.148136],[29.050972,41.147638],[29.053323,41.145945],[29.055489,41.143303],[29.055772,41.142191],[29.056413,41.141204],[29.057537,41.139476],[29.05482,41.139364],[29.054174,41.138469],[29.057929,41.13711],[29.059847,41.135919],[29.060905,41.135384],[29.062204,41.134338],[29.062562,41.133179],[29.063136,41.132686],[29.063593,41.13094],[29.065998,41.128932],[29.068289,41.128349],[29.070379,41.126841],[29.07099,41.124832],[29.071173,41.122667],[29.069554,41.119573],[29.066972,41.11801],[29.064725,41.116514],[29.063072,41.114719],[29.061352,41.113226],[29.058093,41.114616],[29.056414,41.114974],[29.053971,41.113891],[29.054976,41.112473],[29.05674,41.113036],[29.057801,41.112569],[29.057506,41.111344],[29.059524,41.109106],[29.059036,41.108046],[29.058047,41.107394],[29.057219,41.10545],[29.055357,41.101733],[29.055123,41.100517],[29.054235,41.099089],[29.053739,41.098802],[29.05472,41.097586],[29.054169,41.096928],[29.054104,41.096052],[29.053851,41.094871],[29.055057,41.092858],[29.056763,41.091173],[29.057181,41.089556],[29.056954,41.087983],[29.057301,41.086708],[29.057274,41.085333],[29.057105,41.083382],[29.05589,41.081448],[29.052765,41.08009],[29.049737,41.079525],[29.046634,41.079053],[29.044004,41.077439],[29.044,41.074823],[29.045144,41.072456],[29.045351,41.071124],[29.046672,41.068541],[29.046122,41.067583],[29.044202,41.066926],[29.043111,41.066793],[29.042356,41.066238],[29.041674,41.065515],[29.041338,41.064935],[29.04143,41.064246],[29.040886,41.063809],[29.040978,41.063153],[29.040484,41.062592],[29.03968,41.06206],[29.037665,41.060726],[29.036917,41.059553],[29.036569,41.059255],[29.036507,41.058704],[29.036142,41.057248],[29.035782,41.055301],[29.035113,41.053961],[29.034952,41.053023],[29.034688,41.052609],[29.034341,41.05266],[29.034285,41.052142],[29.032704,41.049444],[29.031483,41.049413],[29.030278,41.049072],[29.028886,41.048477],[29.028069,41.047585],[29.027413,41.046855],[29.026073,41.047227],[29.024895,41.047134],[29.023737,41.04667],[29.020893,41.045602],[29.018834,41.044641],[29.017799,41.043783],[29.005985,41.040193],[29.000131,41.038273],[28.996408,41.037387],[28.994819,41.036116],[28.994031,41.035148],[28.994198,41.034226],[28.990678,41.030941],[28.98714,41.027258],[28.986812,41.025744],[28.985675,41.024914],[28.985001,41.023392],[28.9851,41.022509],[28.983305,41.020339],[28.98301,41.018392],[28.982496,41.017334],[28.983458,41.017465],[28.985952,41.017661],[28.986904,41.015952],[28.98785,41.013682],[28.987843,41.011216],[28.986861,41.007633],[28.985303,41.005891],[28.983168,41.004422],[28.982193,41.00307],[29.007576,41.005215],[29.00654,41.007336],[29.009847,41.007483],[29.009173,41.009607],[29.011063,41.012333],[29.010567,41.015346],[29.008223,41.019047],[29.005988,41.02178],[29.007114,41.024291],[29.010837,41.026679],[29.013332,41.026262],[29.019071,41.031238],[29.021544,41.031913],[29.024051,41.033098],[29.029353,41.036887],[29.03571,41.040348],[29.03948,41.042847],[29.043304,41.044115],[29.04517,41.045322],[29.051883,41.048156],[29.052578,41.050427],[29.052002,41.052066],[29.051548,41.053101],[29.052343,41.056372],[29.052963,41.058053],[29.052324,41.062338],[29.053595,41.062676],[29.055119,41.06427],[29.056868,41.066753],[29.056922,41.069007],[29.055435,41.07287],[29.056012,41.0744],[29.058807,41.074724],[29.063479,41.076557],[29.065174,41.07948],[29.066428,41.082478],[29.067119,41.085295],[29.066025,41.087346],[29.066622,41.090088],[29.065533,41.09382],[29.066684,41.094705],[29.065248,41.095463],[29.064654,41.097137],[29.064535,41.098034],[29.065078,41.098936],[29.066171,41.10285],[29.069441,41.105122],[29.071156,41.106011],[29.073321,41.107127],[29.075003,41.106951],[29.076919,41.107305],[29.07848,41.107904],[29.080754,41.107234],[29.082493,41.108188],[29.082257,41.109735],[29.083765,41.110944],[29.08672,41.114267],[29.090011,41.115836],[29.092168,41.116255],[29.093538,41.116939],[29.094878,41.116977],[29.095984,41.117597],[29.097373,41.120591],[29.097751,41.122653],[29.097093,41.123432],[29.097573,41.124393],[29.097678,41.125997],[29.094076,41.129252],[29.092407,41.130934],[29.091388,41.132891],[29.091553,41.133955],[29.089985,41.134407],[29.086397,41.136705],[29.084017,41.137085],[29.079733,41.137149],[29.079472,41.137655],[29.079371,41.138048],[29.078524,41.138528],[29.078063,41.138983],[29.078998,41.139586],[29.076952,41.140312],[29.07498,41.141047],[29.072221,41.141762],[29.071644,41.142801],[29.071928,41.14446],[29.073047,41.1464],[29.074477,41.14763],[29.076183,41.149556],[29.077483,41.152591],[29.078057,41.154344],[29.077836,41.155731],[29.077057,41.156985],[29.075917,41.158233],[29.07365,41.160009],[29.072289,41.161044],[29.073102,41.16284],[29.075096,41.166493],[29.079822,41.166998],[29.081648,41.167555],[29.083448,41.168517],[29.087458,41.170401],[29.088342,41.172332],[29.087752,41.174366],[29.086894,41.178477],[29.089064,41.179196],[29.089953,41.179649],[29.091286,41.180148],[29.092841,41.1801],[29.094327,41.180614],[29.096824,41.180412],[29.100056,41.18071],[29.10255,41.181834],[29.10483,41.181285],[29.105526,41.18076],[29.106447,41.180787],[29.10738,41.18155],[29.107251,41.182867],[29.108541,41.183911],[29.110439,41.184068],[29.11193,41.183675],[29.112518,41.182728],[29.112952,41.183591],[29.112585,41.184808],[29.114206,41.185066],[29.115731,41.186247],[29.118227,41.187027],[29.118332,41.187705],[29.11792,41.188433],[29.119799,41.191252],[29.118959,41.192706],[29.119252,41.194007],[29.118976,41.194536],[29.119548,41.195488],[29.12021,41.196669],[29.119238,41.197594],[29.118233,41.199582],[29.119988,41.200789],[29.121114,41.200889],[29.12335,41.201659],[29.129137,41.202395],[29.131511,41.203636],[29.131568,41.204956],[29.131061,41.20641],[29.129754,41.206959],[29.131726,41.208274],[29.136212,41.209572],[29.138197,41.211451],[29.141662,41.212936],[29.148028,41.212154],[29.150114,41.213364],[29.152917,41.215065],[29.151501,41.216403],[29.150392,41.218054],[29.152626,41.218714],[29.156498,41.218918],[29.158962,41.218056],[29.161652,41.216991],[29.162641,41.218271],[29.163505,41.221288],[29.16514,41.224043],[29.168196,41.224209],[29.16981,41.225936],[29.115782,41.234367]]]}}]}